MOLNIYA 2-9             
1 07276U 74026A   22234.08997843  .00000119  00000+0  00000+0 0  9991
2 07276  64.2811 217.9978 6455153 280.5341  17.3429  2.45097657250829
MOLNIYA 2-10            
1 07376U 74056A   22235.02297595 -.00001171  00000+0  00000+0 0  9997
2 07376  64.2042  87.9015 6738891 286.1982  13.6313  2.01134184351720
MOLNIYA 1-S             
1 07392U 74060A   22234.77549316 -.00000010  00000+0  00000+0 0  9993
2 07392   4.9534 281.9412 0011911 211.3158 185.3840  1.00200024120190
MOLNIYA 1-29            
1 07780U 75036A   22233.97590483 -.00000016  00000+0 -11306+0 0  9998
2 07780  63.4181 207.9199 6887008 288.6360  12.0027  2.00627650346939
MOLNIYA 2-14            
1 08195U 75081A   22234.98624239  .00000908  00000+0  00000+0 0  9995
2 08195  63.3887 180.8347 6791169 292.8511  11.4984  2.02093958344284
MOLNIYA 1-32            
1 08601U 76006A   22231.51211652 -.00000828  00000+0  11027-1 0  9997
2 08601  63.4829 288.8226 7242262 283.8131  11.2465  2.00080504 53923
MOLNIYA 1-36            
1 09880U 77021A   22234.13448432  .00000287  00000+0  00000+0 0  9999
2 09880  63.4927 259.9340 7167222 289.6819  10.2771  2.00907636230680
MOLNIYA 3-8             
1 10455U 77105A   22234.34715337 -.00000501  00000+0 -23839-3 0  9996
2 10455  63.3952 347.8444 7368364 282.2645  10.8768  2.00842813328466
MOLNIYA 1-40            
1 10925U 78055A   22233.53348230  .00000341  00000+0  00000+0 0  9998
2 10925  63.3733  38.9082 7263299 280.6752  11.7931  2.00710262323989
MOLNIYA 3-10            
1 11057U 78095A   22234.71039971  .00000036  00000+0  63960-3 0  9998
2 11057  63.1787  14.8396 5791432 310.8197  11.7234  4.09854718386448
MOLNIYA 3-13            
1 11896U 80063A   22233.76621514  .00000283  00000+0  00000+0 0  9997
2 11896  62.7003 129.1305 7105317 276.3517  14.0734  2.00659263308408
MOLNIYA 1-49            
1 12156U 81009A   22233.82444675 -.00000878  00000+0  96288-3 0  9994
2 12156  61.6985 155.6229 7272697 263.2244  17.1987  2.05713793222832
MOLNIYA 1-52            
1 13012U 81123A   22233.61338459 -.00000507  00000+0 -14354-1 0  9994
2 13012  61.7275 269.4154 7238729 255.6522  20.8059  2.00393157297881
MOLNIYA 1-53            
1 13070U 82015A   22234.88309975 -.00001168  00000+0 -23298-1 0  9991
2 13070  62.6309 206.0082 7030964 282.8350  12.6555  2.00765065296589
MOLNIYA 3-20            
1 13875U 83015A   22234.40010407  .00001424  00000+0  22071-2 0  9994
2 13875  62.7103 342.3488 7401826 258.6390  17.9588  2.00489072225030
MOLNIYA 1-56            
1 13890U 83019A   22231.20778330 -.00000938  00000+0  46305-3 0  9993
2 13890  62.9895   8.0640 7449415 264.5905  15.2446  1.99979038287852
MOLNIYA 1-63            
1 15429U 84124A   22231.79504034  .00000997  00000+0  00000+0 0  9995
2 15429  63.7517 161.7558 6643862 259.3106 290.9239  2.00808719276077
MOLNIYA 3-24            
1 15738U 85040A   22235.05487124 -.00000088  00000+0  00000+0 0  9991
2 15738  63.6657  70.3791 6818659 247.2719  30.6608  2.55627703305605
MOLNIYA 3-27            
1 16393U 85117A   22233.67005650 -.00000154  00000+0  00000+0 0  9994
2 16393  64.3919  73.0324 6994057 248.0816  27.9450  2.12397476275567
MOLNIYA 1-69            
1 17078U 86089A   22231.16940748  .00000077  00000+0  00000+0 0  9995
2 17078  63.9911 180.6538 6649761 257.7475  25.8581  2.00678814262107
MOLNIYA 3-31            
1 17328U 87008A   22233.75828589  .00000351  00000+0  00000+0 0  9995
2 17328  63.6943 120.9761 7051464 253.7637  23.7949  2.00610112257179
MOLNIYA 1-71            
1 18946U 88017A   22234.69910771 -.00000325  00000+0  00000+0 0  9994
2 18946  63.4071 114.8271 7165287 256.4156  21.2028  2.00645395252424
MOLNIYA 1-75            
1 19807U 89014A   22233.91874562  .00000094  00000+0  00000+0 0  9992
2 19807  64.0493 277.4208 6848582 266.7729  19.5646  2.00582481245319
MOLNIYA 1-80            
1 21118U 91012A   22235.38002805 -.00000004  00000+0  00000+0 0  9999
2 21118  65.1926 325.6405 6785418 276.7817  16.4028  2.05245896232364
MOLNIYA 3-40            
1 21196U 91022A   22233.85178843  .00000331  00000+0  00000+0 0  9994
2 21196  65.1102 319.4176 6815627 273.6006  17.2675  2.03020678231019
MOLNIYA 1-81            
1 21426U 91043A   22234.82866186  .00000054  00000+0  00000+0 0  9997
2 21426  64.1049 335.6341 7096452 266.6483  17.5443  2.00634765228474
MOLNIYA 3-41            
1 21706U 91065A   22234.95460332  .00000741  00000+0  00000+0 0  9992
2 21706  64.0991 158.8296 6849660 255.3029  25.1305  2.04352587228285
MOLNIYA 3-42            
1 22178U 92067A   22234.12155145  .00000173  00000+0  00000+0 0  9990
2 22178  64.6758 209.0262 6426291 266.0276  23.6868  2.20435673225967
MOLNIYA 1-86            
1 22671U 93035A   22234.81692063  .00000248  00000+0  33328-3 0  9991
2 22671  63.0864 198.3666 4861040   8.0795 357.5220  5.62691166355984
MOLNIYA 1-87            
1 22949U 93079A   22231.64823472 -.00000581  00000+0  00000+0 0  9993
2 22949  63.9988  85.0351 6880513 284.0436  13.3376  2.02882511 76219
MOLNIYA 1-88            
1 23420U 94081A   22235.16178614  .00000068  00000+0  00000+0 0  9993
2 23420  64.2787 180.9880 5801333 281.8515  21.7605  3.34497938249178
MOLNIYA 3-47            
1 23642U 95042A   22234.62434064  .00000191  00000+0  00000+0 0  9998
2 23642  64.1235  66.4517 6931427 284.2865  12.9285  2.01978725198350
MOLNIYA 1-90            
1 24960U 97054A   22235.24359305  .00000022  00000+0 -50108-2 0  9991
2 24960  63.6416 147.5196 6111108 298.2752  13.8303  3.18688558210211
MOLNIYA 1-91            
1 25485U 98054A   22235.19486988  .00000137  00000+0  22925-2 0  9999
2 25485  63.0288 139.8265 6773888 291.8898 336.9092  2.36443896179957
MOLNIYA 3-50            
1 25847U 99036A   22234.30833521  .00000251  00000+0 -36153-3 0  9990
2 25847  63.2124 324.2313 7376801 282.1102  10.8911  2.00657924169430
